{
  "type": "FeatureCollection",
  "features": [
    {
      "type": "Feature",
      "properties": {
        "name": "Vondelpark",
        "type": "park",
        "stroke-width": 3
      },
      "geometry": {
        "type": "Polygon",
        "coordinates": [
          [
            [4.881491661071777, 52.36194735288177],
            [4.882135391235352, 52.361711487760196],
            [4.875826835632324, 52.35966727063089],
            [4.866771697998047, 52.356207610808546],
            [4.855034351348877, 52.356391084418235],
            [4.875226020812988, 52.36126596131745],
            [4.881491661071777, 52.36194735288177]
          ]
        ]
      }
    },
    {
      "type": "Feature",
      "properties": {
        "name": "Westerpark",
        "type": "park",
        "stroke-width": 3
      },
      "geometry": {
        "type": "Polygon",
        "coordinates": [
          [
            [4.88093376159668, 52.38560608655206],
            [4.870891571044922, 52.388696767789725],
            [4.85072135925293, 52.389220590621235],
            [4.84522819519043, 52.38607756038855],
            [4.88093376159668, 52.38560608655206]
          ]
        ]
      }
    }
  ]
}

